{
  "compareFunction": "significant_features",
  "fixtures": [
  {
    "description": "Feature with version as 101 deleted",
    "oldVersion": {
"type":"Feature","id":"way!5013364!101","properties":{"addr:housenumber":"5","addr:postcode":"75007","addr:street":"Avenue Anatole France","architect":"Stephen Sauvestre;Gustave Eiffel;Maurice Koechlin;Ã‰mile Nouguier","building":"yes","building:colour":"#706550","building:material":"iron","building:min_height":"4","building:part":"no","building:shape":"pyramidal","communication:radio":"fm","communication:television":"dvb-t","height":"324","image":"http://upload.wikimedia.org/wikipedia/commons/a/a8/Tour_Eiffel_Wikimedia_Commons.jpg","importance":"international","layer":"2","man_made":"tower","name":"Tour Eiffel","name:af":"Eiffel-toring","name:ar":"Ø¨Ø±Ø¬ Ø¥ÙŠÙÙ„","name:ast":"Torrne Eiffel","name:ba":"Ð­Ð¹Ñ„ÐµÐ»ÑŒ Ð±Ð°ÑˆÐ½ÑÒ»Ñ‹","name:cs":"Eiffelova vÄ›Å¾","name:da":"EiffeltÃ¥rnet","name:de":"Eiffelturm","name:el":"Î ÏÏÎ³Î¿Ï‚ Ï„Î¿Ï… Î†Î¹Ï†ÎµÎ»","name:en":"Eiffel Tower","name:es":"Torre Eiffel","name:et":"Eiffeli torn","name:fa":"Ø¨Ø±Ø¬ Ø§ÛŒÙÙ„","name:fi":"Eiffel-torni","name:fr":"Tour Eiffel","name:hr":"Eiffelov toranj","name:hu":"Eiffel-torony","name:id":"Menara Eiffel","name:it":"Torre Eiffel","name:ja":"ã‚¨ãƒƒãƒ•ã‚§ãƒ«å¡”","name:ko":"ì—íŽ íƒ‘","name:ku":"BarÃ»ya EyfelÃª","name:la":"Turris Eiffelia","name:lb":"Eiffeltuerm","name:nl":"Eiffeltoren","name:pl":"WieÅ¼a Eiffla","name:pt":"Torre Eiffel","name:ru":"Ð­Ð¹Ñ„ÐµÐ»ÐµÐ²Ð° Ð±Ð°ÑˆÐ½Ñ","name:sk":"Eiffelova veÅ¾a","name:sv":"Eiffeltornet","name:ta":"à®ˆà®ªà¯†à®²à¯ à®•à¯‹à®ªà¯à®°à®®à¯","name:tr":"Eyfel Kulesi","name:tt":"Ð­Ð¹Ñ„ÐµÐ»ÑŒ Ð¼Ð°Ð½Ð°Ñ€Ð°ÑÑ‹","name:uk":"Ð•Ð¹Ñ„ÐµÐ»ÐµÐ²Ð° Ð²ÐµÐ¶Ð°","name:vi":"ThÃ¡p Eiffel","name:zh":"åŸƒè²å°”é“å¡”","opening_hours":"Mo-Su 09:00-00:00","operator":"SociÃ©tÃ© dâ€™Exploitation de la Tour Eiffel","source:building":"http://fr.wikipedia.org/wiki/Donn%C3%A9es_techniques_de_la_tour_Eiffel","tourism":"attraction","tourism:visitors":"7000000","tower:type":"communication;observation","website":"http://toureiffel.paris","wheelchair":"yes","wikipedia":"fr:Tour Eiffel","osm:type":"way","osm:id":5013364,"osm:version":101,"osm:changeset":43252203,"osm:timestamp":1477679770000,"osm:uid":466374,"osm:user":"rando67"},"geometry":{"type":"MultiPolygon","coordinates":[[[[2.295653,48.8582954],[2.2955837,48.85834],[2.2954575,48.8584212],[2.2954416,48.858411],[2.2954238,48.8584227],[2.2953878,48.8583981],[2.2953925,48.858395],[2.2953701,48.8583857],[2.2953419,48.8583779],[2.2953057,48.8583737],[2.2952111,48.8583776],[2.2951081,48.858403],[2.2950157,48.8584326],[2.2949284,48.8584723],[2.2948493,48.8585198],[2.2947988,48.8585613],[2.2947558,48.8586003],[2.2947144,48.8586446],[2.294682,48.8586886],[2.2946605,48.8587289],[2.2946462,48.8587747],[2.294644,48.8587962],[2.2946462,48.8588051],[2.2946938,48.8588377],[2.2946607,48.8588587],[2.294663,48.8588603],[2.294681,48.858849],[2.2947169,48.8588737],[2.2946988,48.858885],[2.2947154,48.8588961],[2.2944832,48.8590465],[2.2943809,48.8589771],[2.2942571,48.8588932],[2.2942741,48.8588824],[2.2942567,48.8588708],[2.2942893,48.8588493],[2.294306,48.8588605],[2.2943103,48.8588577],[2.2942883,48.8588426],[2.2943122,48.8588275],[2.2943227,48.8588209],[2.2943283,48.8588173],[2.2943315,48.8588125],[2.2943333,48.8588018],[2.2943166,48.8587327],[2.2942885,48.8586829],[2.2942783,48.8586648],[2.2942406,48.8586191],[2.2942064,48.858577],[2.2941734,48.8585464],[2.2941015,48.8584943],[2.2940384,48.8584609],[2.2939792,48.8584325],[2.293912,48.8584052],[2.2938415,48.8583828],[2.293784,48.8583695],[2.2937145,48.8583599],[2.2936514,48.8583593],[2.2936122,48.8583846],[2.293606,48.8583807],[2.2935688,48.8584044],[2.2935515,48.8583929],[2.293536,48.8584028],[2.2933084,48.8582486],[2.2935432,48.8581003],[2.2935574,48.8581099],[2.2935752,48.8580986],[2.2936112,48.8581232],[2.2936086,48.8581249],[2.293611,48.8581262],[2.2936415,48.8581385],[2.293672,48.8581477],[2.2937035,48.8581504],[2.293734,48.858149],[2.2937827,48.8581439],[2.2938856,48.8581182],[2.2939778,48.8580882],[2.2940648,48.8580483],[2.2941435,48.8580006],[2.2941937,48.8579588],[2.2942364,48.8579197],[2.2942775,48.8578753],[2.2943096,48.8578312],[2.2943307,48.8577908],[2.2943447,48.857745],[2.2943478,48.8577118],[2.2943394,48.8576885],[2.2943306,48.8576773],[2.2943205,48.8576677],[2.2943158,48.8576707],[2.2942802,48.8576465],[2.2942977,48.8576355],[2.2942817,48.8576248],[2.2942926,48.8576181],[2.2944653,48.8575069],[2.2945144,48.8574753],[2.2947414,48.8576291],[2.294725,48.8576392],[2.2947426,48.857651],[2.294706,48.8576751],[2.294698,48.8576696],[2.2946846,48.8576782],[2.2946744,48.8576865],[2.2946881,48.8576957],[2.2946548,48.857717],[2.2946554,48.8577213],[2.2946713,48.8577905],[2.2946982,48.8578393],[2.2947088,48.8578585],[2.2947529,48.8579196],[2.2948123,48.8579775],[2.2948836,48.85803],[2.2949462,48.8580637],[2.2950051,48.8580923],[2.2950719,48.85812],[2.2951347,48.8581406],[2.2951996,48.8581564],[2.2952689,48.8581663],[2.295334,48.8581699],[2.2953613,48.8581518],[2.2953739,48.8581604],[2.2953965,48.8581497],[2.2954016,48.8581464],[2.2953933,48.8581409],[2.2954304,48.8581172],[2.2954473,48.8581285],[2.2954631,48.8581182],[2.2956897,48.8582718],[2.295653,48.8582954]]]]}
    }
  },
  {
    "description": "Feature with both old and new Version",
    "oldVersion": {
"type":"Feature","id":"way!5013364!100","properties":{"addr:housenumber":"5","addr:postcode":"75007","addr:street":"Avenue Anatole France","architect":"Stephen Sauvestre;Gustave Eiffel;Maurice Koechlin;Ã‰mile Nouguier","building":"yes","building:colour":"#706550","building:material":"iron","building:min_height":"4","building:part":"no","building:shape":"pyramidal","communication:radio":"fm","communication:television":"dvb-t","height":"324","image":"http://upload.wikimedia.org/wikipedia/commons/a/a8/Tour_Eiffel_Wikimedia_Commons.jpg","importance":"international","layer":"2","man_made":"tower","name":"Tour Eiffel","name:af":"Eiffel-toring","name:ar":"Ø¨Ø±Ø¬ Ø¥ÙŠÙÙ„","name:ast":"Torrne Eiffel","name:ba":"Ð­Ð¹Ñ„ÐµÐ»ÑŒ Ð±Ð°ÑˆÐ½ÑÒ»Ñ‹","name:cs":"Eiffelova vÄ›Å¾","name:da":"EiffeltÃ¥rnet","name:de":"Eiffelturm","name:el":"Î ÏÏÎ³Î¿Ï‚ Ï„Î¿Ï… Î†Î¹Ï†ÎµÎ»","name:en":"Eiffel Tower","name:es":"Torre Eiffel","name:et":"Eiffeli torn","name:fa":"Ø¨Ø±Ø¬ Ø§ÛŒÙÙ„","name:fi":"Eiffel-torni","name:fr":"Tour Eiffel","name:hr":"Eiffelov toranj","name:hu":"Eiffel-torony","name:id":"Menara Eiffel","name:it":"Torre Eiffel","name:ja":"ã‚¨ãƒƒãƒ•ã‚§ãƒ«å¡”","name:ko":"ì—íŽ íƒ‘","name:ku":"BarÃ»ya EyfelÃª","name:la":"Turris Eiffelia","name:lb":"Eiffeltuerm","name:nl":"Eiffeltoren","name:pl":"WieÅ¼a Eiffla","name:pt":"Torre Eiffel","name:ru":"Ð­Ð¹Ñ„ÐµÐ»ÐµÐ²Ð° Ð±Ð°ÑˆÐ½Ñ","name:sk":"Eiffelova veÅ¾a","name:sv":"Eiffeltornet","name:ta":"à®ˆà®ªà¯†à®²à¯ à®•à¯‹à®ªà¯à®°à®®à¯","name:tr":"Eyfel Kulesi","name:tt":"Ð­Ð¹Ñ„ÐµÐ»ÑŒ Ð¼Ð°Ð½Ð°Ñ€Ð°ÑÑ‹","name:uk":"Ð•Ð¹Ñ„ÐµÐ»ÐµÐ²Ð° Ð²ÐµÐ¶Ð°","name:vi":"ThÃ¡p Eiffel","name:zh":"åŸƒè²å°”é“å¡”","opening_hours":"Mo-Su 09:00-00:00","operator":"SociÃ©tÃ© dâ€™Exploitation de la Tour Eiffel","source:building":"http://fr.wikipedia.org/wiki/Donn%C3%A9es_techniques_de_la_tour_Eiffel","tourism":"attraction","tourism:visitors":"7000000","tower:type":"communication;observation","website":"http://toureiffel.paris","wheelchair":"yes","wikipedia":"fr:Tour Eiffel","osm:type":"way","osm:id":5013364,"osm:version":100,"osm:changeset":42051386,"osm:timestamp":1473470497000,"osm:uid":549284,"osm:user":"BladeTC"},"geometry":{"type":"MultiPolygon","coordinates":[[[[2.2956897,48.8582718],[2.2954575,48.8584212],[2.2954416,48.858411],[2.2954238,48.8584227],[2.2953878,48.8583981],[2.2953925,48.858395],[2.2953701,48.8583857],[2.2953419,48.8583779],[2.2953057,48.8583737],[2.2952111,48.8583776],[2.2951081,48.858403],[2.2950157,48.8584326],[2.2949284,48.8584723],[2.2948493,48.8585198],[2.2947988,48.8585613],[2.2947558,48.8586003],[2.2947144,48.8586446],[2.294682,48.8586886],[2.2946605,48.8587289],[2.2946462,48.8587747],[2.294644,48.8587962],[2.2946462,48.8588051],[2.2946938,48.8588377],[2.2946607,48.8588587],[2.294663,48.8588603],[2.294681,48.858849],[2.2947169,48.8588737],[2.2946988,48.858885],[2.2947154,48.8588961],[2.2944832,48.8590465],[2.2943809,48.8589771],[2.2942571,48.8588932],[2.2942741,48.8588824],[2.2942567,48.8588708],[2.2942893,48.8588493],[2.294306,48.8588605],[2.2943103,48.8588577],[2.2942883,48.8588426],[2.2943122,48.8588275],[2.2943227,48.8588209],[2.2943283,48.8588173],[2.2943315,48.8588125],[2.2943333,48.8588018],[2.2943166,48.8587327],[2.2942885,48.8586829],[2.2942783,48.8586648],[2.2942406,48.8586191],[2.2942064,48.858577],[2.2941734,48.8585464],[2.2941015,48.8584943],[2.2940384,48.8584609],[2.2939792,48.8584325],[2.293912,48.8584052],[2.2938415,48.8583828],[2.293784,48.8583695],[2.2937145,48.8583599],[2.2936514,48.8583593],[2.2936122,48.8583846],[2.293606,48.8583807],[2.2935688,48.8584044],[2.2935515,48.8583929],[2.293536,48.8584028],[2.2933084,48.8582486],[2.2935432,48.8581003],[2.2935574,48.8581099],[2.2935752,48.8580986],[2.2936112,48.8581232],[2.2936086,48.8581249],[2.293611,48.8581262],[2.2936415,48.8581385],[2.293672,48.8581477],[2.2937035,48.8581504],[2.293734,48.858149],[2.2937827,48.8581439],[2.2938856,48.8581182],[2.2939778,48.8580882],[2.2940648,48.8580483],[2.2941435,48.8580006],[2.2941937,48.8579588],[2.2942364,48.8579197],[2.2942775,48.8578753],[2.2943096,48.8578312],[2.2943307,48.8577908],[2.2943447,48.857745],[2.2943478,48.8577118],[2.2943394,48.8576885],[2.2943306,48.8576773],[2.2943205,48.8576677],[2.2943158,48.8576707],[2.2942802,48.8576465],[2.2942977,48.8576355],[2.2942817,48.8576248],[2.2942926,48.8576181],[2.2944653,48.8575069],[2.2945144,48.8574753],[2.2947414,48.8576291],[2.294725,48.8576392],[2.2947426,48.857651],[2.294706,48.8576751],[2.294698,48.8576696],[2.2946846,48.8576782],[2.2946744,48.8576865],[2.2946881,48.8576957],[2.2946548,48.857717],[2.2946554,48.8577213],[2.2946713,48.8577905],[2.2946982,48.8578393],[2.2947088,48.8578585],[2.2947529,48.8579196],[2.2948123,48.8579775],[2.2948836,48.85803],[2.2949462,48.8580637],[2.2950051,48.8580923],[2.2950719,48.85812],[2.2951347,48.8581406],[2.2951996,48.8581564],[2.2952689,48.8581663],[2.295334,48.8581699],[2.2953613,48.8581518],[2.2953739,48.8581604],[2.2953965,48.8581497],[2.2954016,48.8581464],[2.2953933,48.8581409],[2.2954304,48.8581172],[2.2954473,48.8581285],[2.2954631,48.8581182],[2.2956897,48.8582718]]]]}
    },
    "newVersion": {
"type":"Feature","id":"way!5013364!101","properties":{"addr:housenumber":"5","addr:postcode":"75007","addr:street":"Avenue Anatole France","architect":"Stephen Sauvestre;Gustave Eiffel;Maurice Koechlin;Ã‰mile Nouguier","building":"yes","building:colour":"#706550","building:material":"iron","building:min_height":"4","building:part":"no","building:shape":"pyramidal","communication:radio":"fm","communication:television":"dvb-t","height":"324","image":"http://upload.wikimedia.org/wikipedia/commons/a/a8/Tour_Eiffel_Wikimedia_Commons.jpg","importance":"international","layer":"2","man_made":"tower","name":"Tour Eiffel","name:af":"Eiffel-toring","name:ar":"Ø¨Ø±Ø¬ Ø¥ÙŠÙÙ„","name:ast":"Torrne Eiffel","name:ba":"Ð­Ð¹Ñ„ÐµÐ»ÑŒ Ð±Ð°ÑˆÐ½ÑÒ»Ñ‹","name:cs":"Eiffelova vÄ›Å¾","name:da":"EiffeltÃ¥rnet","name:de":"Eiffelturm","name:el":"Î ÏÏÎ³Î¿Ï‚ Ï„Î¿Ï… Î†Î¹Ï†ÎµÎ»","name:en":"Eiffel Tower","name:es":"Torre Eiffel","name:et":"Eiffeli torn","name:fa":"Ø¨Ø±Ø¬ Ø§ÛŒÙÙ„","name:fi":"Eiffel-torni","name:fr":"Tour Eiffel","name:hr":"Eiffelov toranj","name:hu":"Eiffel-torony","name:id":"Menara Eiffel","name:it":"Torre Eiffel","name:ja":"ã‚¨ãƒƒãƒ•ã‚§ãƒ«å¡”","name:ko":"ì—íŽ íƒ‘","name:ku":"BarÃ»ya EyfelÃª","name:la":"Turris Eiffelia","name:lb":"Eiffeltuerm","name:nl":"Eiffeltoren","name:pl":"WieÅ¼a Eiffla","name:pt":"Torre Eiffel","name:ru":"Ð­Ð¹Ñ„ÐµÐ»ÐµÐ²Ð° Ð±Ð°ÑˆÐ½Ñ","name:sk":"Eiffelova veÅ¾a","name:sv":"Eiffeltornet","name:ta":"à®ˆà®ªà¯†à®²à¯ à®•à¯‹à®ªà¯à®°à®®à¯","name:tr":"Eyfel Kulesi","name:tt":"Ð­Ð¹Ñ„ÐµÐ»ÑŒ Ð¼Ð°Ð½Ð°Ñ€Ð°ÑÑ‹","name:uk":"Ð•Ð¹Ñ„ÐµÐ»ÐµÐ²Ð° Ð²ÐµÐ¶Ð°","name:vi":"ThÃ¡p Eiffel","name:zh":"åŸƒè²å°”é“å¡”","opening_hours":"Mo-Su 09:00-00:00","operator":"SociÃ©tÃ© dâ€™Exploitation de la Tour Eiffel","source:building":"http://fr.wikipedia.org/wiki/Donn%C3%A9es_techniques_de_la_tour_Eiffel","tourism":"attraction","tourism:visitors":"7000000","tower:type":"communication;observation","website":"http://toureiffel.paris","wheelchair":"yes","wikipedia":"fr:Tour Eiffel","osm:type":"way","osm:id":5013364,"osm:version":101,"osm:changeset":43252203,"osm:timestamp":1477679770000,"osm:uid":466374,"osm:user":"rando67"},"geometry":{"type":"MultiPolygon","coordinates":[[[[2.295653,48.8582954],[2.2955837,48.85834],[2.2954575,48.8584212],[2.2954416,48.858411],[2.2954238,48.8584227],[2.2953878,48.8583981],[2.2953925,48.858395],[2.2953701,48.8583857],[2.2953419,48.8583779],[2.2953057,48.8583737],[2.2952111,48.8583776],[2.2951081,48.858403],[2.2950157,48.8584326],[2.2949284,48.8584723],[2.2948493,48.8585198],[2.2947988,48.8585613],[2.2947558,48.8586003],[2.2947144,48.8586446],[2.294682,48.8586886],[2.2946605,48.8587289],[2.2946462,48.8587747],[2.294644,48.8587962],[2.2946462,48.8588051],[2.2946938,48.8588377],[2.2946607,48.8588587],[2.294663,48.8588603],[2.294681,48.858849],[2.2947169,48.8588737],[2.2946988,48.858885],[2.2947154,48.8588961],[2.2944832,48.8590465],[2.2943809,48.8589771],[2.2942571,48.8588932],[2.2942741,48.8588824],[2.2942567,48.8588708],[2.2942893,48.8588493],[2.294306,48.8588605],[2.2943103,48.8588577],[2.2942883,48.8588426],[2.2943122,48.8588275],[2.2943227,48.8588209],[2.2943283,48.8588173],[2.2943315,48.8588125],[2.2943333,48.8588018],[2.2943166,48.8587327],[2.2942885,48.8586829],[2.2942783,48.8586648],[2.2942406,48.8586191],[2.2942064,48.858577],[2.2941734,48.8585464],[2.2941015,48.8584943],[2.2940384,48.8584609],[2.2939792,48.8584325],[2.293912,48.8584052],[2.2938415,48.8583828],[2.293784,48.8583695],[2.2937145,48.8583599],[2.2936514,48.8583593],[2.2936122,48.8583846],[2.293606,48.8583807],[2.2935688,48.8584044],[2.2935515,48.8583929],[2.293536,48.8584028],[2.2933084,48.8582486],[2.2935432,48.8581003],[2.2935574,48.8581099],[2.2935752,48.8580986],[2.2936112,48.8581232],[2.2936086,48.8581249],[2.293611,48.8581262],[2.2936415,48.8581385],[2.293672,48.8581477],[2.2937035,48.8581504],[2.293734,48.858149],[2.2937827,48.8581439],[2.2938856,48.8581182],[2.2939778,48.8580882],[2.2940648,48.8580483],[2.2941435,48.8580006],[2.2941937,48.8579588],[2.2942364,48.8579197],[2.2942775,48.8578753],[2.2943096,48.8578312],[2.2943307,48.8577908],[2.2943447,48.857745],[2.2943478,48.8577118],[2.2943394,48.8576885],[2.2943306,48.8576773],[2.2943205,48.8576677],[2.2943158,48.8576707],[2.2942802,48.8576465],[2.2942977,48.8576355],[2.2942817,48.8576248],[2.2942926,48.8576181],[2.2944653,48.8575069],[2.2945144,48.8574753],[2.2947414,48.8576291],[2.294725,48.8576392],[2.2947426,48.857651],[2.294706,48.8576751],[2.294698,48.8576696],[2.2946846,48.8576782],[2.2946744,48.8576865],[2.2946881,48.8576957],[2.2946548,48.857717],[2.2946554,48.8577213],[2.2946713,48.8577905],[2.2946982,48.8578393],[2.2947088,48.8578585],[2.2947529,48.8579196],[2.2948123,48.8579775],[2.2948836,48.85803],[2.2949462,48.8580637],[2.2950051,48.8580923],[2.2950719,48.85812],[2.2951347,48.8581406],[2.2951996,48.8581564],[2.2952689,48.8581663],[2.295334,48.8581699],[2.2953613,48.8581518],[2.2953739,48.8581604],[2.2953965,48.8581497],[2.2954016,48.8581464],[2.2953933,48.8581409],[2.2954304,48.8581172],[2.2954473,48.8581285],[2.2954631,48.8581182],[2.2956897,48.8582718],[2.295653,48.8582954]]]]}
    }
  },
  {
    "description": "Feature with version 5 deleted",
    "oldVersion": {
"type":"Feature","id":"way!375257537!5","properties":{"building":"yes","height":"5","historic":"monument","name":"Taj Mahal","name:bn":"à¦¤à¦¾à¦œà¦®à¦¹à¦²","name:gu":"àª¤àª¾àªœ àª®àª¹à«‡àª²","name:hi":"à¤¤à¤¾à¤œ à¤®à¤¹à¤²","name:ja":"ã‚¿ãƒ¼ã‚¸ãƒ»ãƒžãƒãƒ«","name:kn":"à²¤à²¾à²œà³ à²®à²¹à²²à³","name:ru":"Ð¢Ð°Ð´Ð¶ ÐœÐ°Ñ…Ð°Ð»","name:ta":"à®¤à®¾à®œà¯ à®®à®•à®¾à®²à¯","name:te":"à°¤à°¾à°œà± à°®à°¹à°²à±","ref:whc":"252","roof:colour":"white","tourism":"attraction","whc:criteria":"(i)","whc:inscription_date":"1983","wheelchair":"yes","wikidata":"Q9141","wikipedia":"en:Taj Mahal","osm:type":"way","osm:id":375257537,"osm:version":5,"osm:changeset":41795649,"osm:timestamp":1472545194000,"osm:uid":4491751,"osm:user":"Ð”Ð¼Ð¸Ñ‚Ñ€Ð¸Ð¹ ÐŸÐ°Ð¿Ñ‡Ð¸Ñ…Ð¸Ð½"},"geometry":{"type":"MultiPolygon","coordinates":[[[[78.042704,27.1745655],[78.0426638,27.1745503],[78.042615,27.1745721],[78.0416425,27.1745814],[78.041618,27.1745513],[78.0415681,27.1745517],[78.0415428,27.1745854],[78.0415619,27.1746255],[78.0416107,27.1746282],[78.0415926,27.1753728],[78.0415585,27.1753953],[78.0415566,27.1754344],[78.0415803,27.1754617],[78.0416317,27.1754617],[78.0416624,27.1754309],[78.0425608,27.1754416],[78.0425935,27.1754684],[78.0426387,27.1754692],[78.0426631,27.175446],[78.0426626,27.1754064],[78.042627,27.1753829],[78.042639,27.174629],[78.042692,27.1746268],[78.042707,27.1746045],[78.042704,27.1745655]]]]}
    }
  },
  {
    "description": "Feature with new Version but no old Version",
    "newVersion": {
"type":"Feature","id":"way!375257537!5","properties":{"building":"yes","height":"5","historic":"monument","name":"Taj Mahal","name:bn":"à¦¤à¦¾à¦œà¦®à¦¹à¦²","name:gu":"àª¤àª¾àªœ àª®àª¹à«‡àª²","name:hi":"à¤¤à¤¾à¤œ à¤®à¤¹à¤²","name:ja":"ã‚¿ãƒ¼ã‚¸ãƒ»ãƒžãƒãƒ«","name:kn":"à²¤à²¾à²œà³ à²®à²¹à²²à³","name:ru":"Ð¢Ð°Ð´Ð¶ ÐœÐ°Ñ…Ð°Ð»","name:ta":"à®¤à®¾à®œà¯ à®®à®•à®¾à®²à¯","name:te":"à°¤à°¾à°œà± à°®à°¹à°²à±","ref:whc":"252","roof:colour":"white","tourism":"attraction","whc:criteria":"(i)","whc:inscription_date":"1983","wheelchair":"yes","wikidata":"Q9141","wikipedia":"en:Taj Mahal","osm:type":"way","osm:id":375257537,"osm:version":5,"osm:changeset":41795649,"osm:timestamp":1472545194000,"osm:uid":4491751,"osm:user":"Ð”Ð¼Ð¸Ñ‚Ñ€Ð¸Ð¹ ÐŸÐ°Ð¿Ñ‡Ð¸Ñ…Ð¸Ð½"},"geometry":{"type":"MultiPolygon","coordinates":[[[[78.042704,27.1745655],[78.0426638,27.1745503],[78.042615,27.1745721],[78.0416425,27.1745814],[78.041618,27.1745513],[78.0415681,27.1745517],[78.0415428,27.1745854],[78.0415619,27.1746255],[78.0416107,27.1746282],[78.0415926,27.1753728],[78.0415585,27.1753953],[78.0415566,27.1754344],[78.0415803,27.1754617],[78.0416317,27.1754617],[78.0416624,27.1754309],[78.0425608,27.1754416],[78.0425935,27.1754684],[78.0426387,27.1754692],[78.0426631,27.175446],[78.0426626,27.1754064],[78.042627,27.1753829],[78.042639,27.174629],[78.042692,27.1746268],[78.042707,27.1746045],[78.042704,27.1745655]]]]}      
    }
  },
  {
    "description": "Feature with none of old version or new version"
  }
  ]
}