{
  "compareFunction": "Test fixtures with all compare functions.",
  "fixtures": [
    {
      "description": "Test node Paris renamed to France",
      "newVersion": {
        "type": "Feature",
        "id": "node!17807753!99",
        "properties": {
          "addr:country": "FR",
          "addr:postcode": "75004",
          "admin_level": "2",
          "alt_name:fr": "LutÃ¨ce",
          "alt_name:vi": "Ba LÃª",
          "capital": "yes",
          "capital_ISO3166-1": "yes",
          "contact:website": "http://www.paris.fr",
          "ele": "30",
          "is_capital": "country",
          "is_in:continent": "Europe",
          "is_in:country": "France",
          "is_in:country_code": "FR",
          "is_in:iso_3166_2": "FR-J",
          "loc_name:fr": "Panam",
          "name": "Paris",
          "name:af": "Parys",
          "name:am": "á\u008d“áˆªáˆµ",
          "name:an": "ParÃ\u00ads",
          "name:ar": "Ø¨Ø§Ø±ÙŠØ³",
          "name:arc": "Ü¦Ü\u0090ÜªÜ\u009dÜ£",
          "name:arz": "Ø¨Ø§Ø±ÙŠØ³",
          "name:ast": "ParÃ\u00ads",
          "name:ba": "ÐŸÐ°Ñ€Ð¸Ð¶",
          "name:bat-smg": "ParÄ«Å¾ios",
          "name:be": "ÐŸÐ°Ñ€Ñ‹Ð¶",
          "name:be-tarask": "ÐŸÐ°Ñ€Ñ‹Ð¶",
          "name:bg": "ÐŸÐ°Ñ€Ð¸Ð¶",
          "name:bn": "à¦ªà§\u008dà¦¯à¦¾à¦°à¦¿à¦¸",
          "name:bo": "à½•à¼‹à½¢à½²à¼\u008d",
          "name:br": "Pariz",
          "name:bs": "Pariz",
          "name:ca": "ParÃ\u00ads",
          "name:cdo": "BÄƒ-lÃ Ì¤",
          "name:ckb": "Ù¾Ø§Ø±ÛŒØ³",
          "name:co": "Parighji",
          "name:cs": "PaÅ™Ã\u00adÅ¾",
          "name:csb": "Pariz",
          "name:cu": "ÐŸÐ°Ñ€Ð¸Ð¶ÑŒ",
          "name:cv": "ÐŸÐ°Ñ€Ð¸Ñ\u0081",
          "name:de": "Paris",
          "name:el": "Î Î±Ï\u0081Î¯ÏƒÎ¹",
          "name:eml": "ParÃ¬",
          "name:en": "France",
          "name:eo": "Parizo",
          "name:es": "ParÃ\u00ads",
          "name:et": "Pariis",
          "name:eu": "Paris",
          "name:ext": "ParÃ\u00ads",
          "name:fa": "Ù¾Ø§Ø±ÛŒØ³",
          "name:fi": "Pariisi",
          "name:fiu-vro": "Pariis",
          "name:fr": "Paris",
          "name:fur": "ParÃ®s",
          "name:fy": "Parys",
          "name:ga": "PÃ¡ras",
          "name:gan": "å·´é»Ž",
          "name:gl": "ParÃ\u00ads",
          "name:gn": "ParÄ©",
          "name:gu": "àªªà«…àª°àª¿àª¸",
          "name:gv": "Paarys",
          "name:ha": "Pariis",
          "name:hak": "PÃ¢-lÃ¬-sá¹³",
          "name:haw": "Palika",
          "name:he": "×¤×¨×™×–",
          "name:hi": "à¤ªà¥ˆà¤°à¤¿à¤¸",
          "name:hr": "Pariz",
          "name:ht": "Pari",
          "name:hu": "PÃ¡rizs",
          "name:hy": "Õ“Õ¡Ö€Õ«Õ¦",
          "name:is": "ParÃ\u00ads",
          "name:it": "Parigi",
          "name:ja": "ãƒ‘ãƒª",
          "name:jbo": "Paris",
          "name:ka": "áƒžáƒ\u0090áƒ áƒ˜áƒ–áƒ˜",
          "name:kk": "ÐŸÐ°Ñ€Ð¸Ð¶",
          "name:km": "áž”áŸ‰áž¶ážšáž¸ážŸ",
          "name:kn": "à²ªà³\u008dà²¯à²¾à²°à²¿à²¸à³\u008d",
          "name:ko": "íŒŒë¦¬",
          "name:koi": "ÐŸÐ°Ñ€Ð¸Ð¶",
          "name:krc": "ÐŸÐ°Ñ€Ð¸Ð¶",
          "name:ku": "ParÃ®s",
          "name:kv": "ÐŸÐ°Ñ€Ð¸Ð¶",
          "name:ky": "ÐŸÐ°Ñ€Ð¸Ð¶",
          "name:la": "Lutetia",
          "name:lb": "ParÃ¤is",
          "name:lez": "ÐŸÐ°Ñ€Ð¸Ð¶",
          "name:li": "Paries",
          "name:lij": "Pariggi",
          "name:ln": "Pari",
          "name:lt": "ParyÅ¾ius",
          "name:lv": "ParÄ«ze",
          "name:lzh": "å·´é»Ž",
          "name:mhr": "ÐŸÐ°Ñ€Ð¸Ð¶",
          "name:mi": "ParÄ«",
          "name:mk": "ÐŸÐ°Ñ€Ð¸Ð·",
          "name:ml": "à´ªà´¾à´°à´¿à´¸àµ\u008d",
          "name:mn": "ÐŸÐ°Ñ€Ð¸Ñ\u0081",
          "name:mr": "à¤ªà¥…à¤°à¤¿à¤¸",
          "name:mrj": "ÐŸÐ°Ñ€Ð¸Ð¶",
          "name:my": "á€•á€«á€›á€®á€™á€¼á€\u00adá€¯á€·",
          "name:myv": "ÐŸÐ°Ñ€Ð¸Ð¶ Ð¾Ñˆ",
          "name:mzn": "Ù¾Ø§Ø±ÛŒØ³",
          "name:nan": "Pa-lÃ\u00ad",
          "name:nap": "Parigge",
          "name:nds": "Paris",
          "name:nds-nl": "Paries",
          "name:ne": "à¤ªà¥‡à¤°à¤¿à¤¸",
          "name:nl": "Parijs",
          "name:no": "Paris",
          "name:oc": "ParÃ\u00ads",
          "name:or": "à¬ªà\u00ad\u008dà\u00adŸà¬¾à¬°à¬¿à¬¸",
          "name:os": "ÐŸÐ°Ñ€Ð¸Ð¶",
          "name:pa": "à¨ªà©ˆà¨°à¨¿à¨¸",
          "name:pl": "ParyÅ¼",
          "name:pnb": "Ù¾ÛŒØ±Ø³",
          "name:ps": "Ù¾Ø§Ø±ÙŠØ³",
          "name:roa-rup": "Parij",
          "name:roa-tara": "Parigge",
          "name:ru": "ÐŸÐ°Ñ€Ð¸Ð¶",
          "name:rue": "ÐŸÐ°Ñ€Ñ–Ð¶",
          "name:sah": "ÐŸÐ°Ñ€Ð¸Ð¶",
          "name:sc": "Parigi",
          "name:scn": "Pariggi",
          "name:sh": "Pariz",
          "name:sk": "ParÃ\u00adÅ¾",
          "name:sl": "Pariz",
          "name:so": "Baariis",
          "name:sq": "Parisi",
          "name:sr": "ÐŸÐ°Ñ€Ð¸Ð·",
          "name:sv": "Paris",
          "name:szl": "ParyÅ¼",
          "name:ta": "à®ªà®¾à®°à®¿à®¸à¯\u008d",
          "name:te": "à°ªà°¾à°°à°¿à°¸à±\u008d",
          "name:tet": "ParÃ\u00ads",
          "name:tg": "ÐŸÐ°Ñ€Ð¸Ð¶",
          "name:th": "à¸›à¸²à¸£à¸µà¸ª",
          "name:tk": "PariÅ¾",
          "name:tl": "Paris",
          "name:tr": "Fransa",
          "name:tt": "ÐŸÐ°Ñ€Ð¸Ð¶",
          "name:tzl": "Parighi",
          "name:udm": "ÐŸÐ°Ñ€Ð¸Ð¶",
          "name:ug": "Ù¾Ø§Ø±Ù‰Ú˜",
          "name:uk": "ÐŸÐ°Ñ€Ð¸Ð¶",
          "name:ur": "Ù¾ÛŒØ±Ø³",
          "name:uz": "Parij",
          "name:vec": "Parixe",
          "name:vep": "PariÅ¾",
          "name:vi": "Paris",
          "name:vls": "Parys",
          "name:wo": "Pari",
          "name:xmf": "áƒžáƒ\u0090áƒ áƒ˜áƒ–áƒ˜",
          "name:yi": "×¤×\u0090×¨×™×–",
          "name:yo": "Parisi",
          "name:yue": "å·´é»Ž",
          "name:za": "Bahliz",
          "name:zh": "å·´é»Ž",
          "name:zh_pinyin": "BÄ\u0081lÃ\u00ad",
          "name:zu": "IParisi",
          "old_name:vi": "Ba LÃª",
          "place": "city",
          "population": "2243833",
          "rank": "0",
          "ref:INSEE": "75056",
          "shop": "bicycle",
          "source:population": "INSEE 2013",
          "wikipedia": "fr:Paris",
          "osm:type": "node",
          "osm:id": 17807753,
          "osm:version": 99,
          "osm:changeset": 46978170,
          "osm:timestamp": 1489923810000,
          "osm:uid": 5508731,
          "osm:user": "Ciddi Adam"
        },
        "geometry": {
          "type": "Point",
          "coordinates": [
            2.3514992,
            48.8566101
          ]
        }
      },
      "oldVersion": {
        "type": "Feature",
        "id": "node!17807753!98",
        "properties": {
          "addr:country": "FR",
          "addr:postcode": "75004",
          "admin_level": "2",
          "alt_name:fr": "LutÃ¨ce",
          "alt_name:vi": "Ba LÃª",
          "capital": "yes",
          "capital_ISO3166-1": "yes",
          "contact:website": "http://www.paris.fr",
          "ele": "30",
          "is_capital": "country",
          "is_in:continent": "Europe",
          "is_in:country": "France",
          "is_in:country_code": "FR",
          "is_in:iso_3166_2": "FR-J",
          "loc_name:fr": "Panam",
          "name": "Paris",
          "name:af": "Parys",
          "name:am": "á\u008d“áˆªáˆµ",
          "name:an": "ParÃ\u00ads",
          "name:ar": "Ø¨Ø§Ø±ÙŠØ³",
          "name:arc": "Ü¦Ü\u0090ÜªÜ\u009dÜ£",
          "name:arz": "Ø¨Ø§Ø±ÙŠØ³",
          "name:ast": "ParÃ\u00ads",
          "name:ba": "ÐŸÐ°Ñ€Ð¸Ð¶",
          "name:bat-smg": "ParÄ«Å¾ios",
          "name:be": "ÐŸÐ°Ñ€Ñ‹Ð¶",
          "name:be-tarask": "ÐŸÐ°Ñ€Ñ‹Ð¶",
          "name:bg": "ÐŸÐ°Ñ€Ð¸Ð¶",
          "name:bn": "à¦ªà§\u008dà¦¯à¦¾à¦°à¦¿à¦¸",
          "name:bo": "à½•à¼‹à½¢à½²à¼\u008d",
          "name:br": "Pariz",
          "name:bs": "Pariz",
          "name:ca": "ParÃ\u00ads",
          "name:cdo": "BÄƒ-lÃ Ì¤",
          "name:ckb": "Ù¾Ø§Ø±ÛŒØ³",
          "name:co": "Parighji",
          "name:cs": "PaÅ™Ã\u00adÅ¾",
          "name:csb": "Pariz",
          "name:cu": "ÐŸÐ°Ñ€Ð¸Ð¶ÑŒ",
          "name:cv": "ÐŸÐ°Ñ€Ð¸Ñ\u0081",
          "name:de": "Paris",
          "name:el": "Î Î±Ï\u0081Î¯ÏƒÎ¹",
          "name:eml": "ParÃ¬",
          "name:eo": "Parizo",
          "name:es": "ParÃ\u00ads",
          "name:et": "Pariis",
          "name:eu": "Paris",
          "name:ext": "ParÃ\u00ads",
          "name:fa": "Ù¾Ø§Ø±ÛŒØ³",
          "name:fi": "Pariisi",
          "name:fiu-vro": "Pariis",
          "name:fr": "Paris",
          "name:fur": "ParÃ®s",
          "name:fy": "Parys",
          "name:ga": "PÃ¡ras",
          "name:gan": "å·´é»Ž",
          "name:gl": "ParÃ\u00ads",
          "name:gn": "ParÄ©",
          "name:gu": "àªªà«…àª°àª¿àª¸",
          "name:gv": "Paarys",
          "name:ha": "Pariis",
          "name:hak": "PÃ¢-lÃ¬-sá¹³",
          "name:haw": "Palika",
          "name:he": "×¤×¨×™×–",
          "name:hi": "à¤ªà¥ˆà¤°à¤¿à¤¸",
          "name:hr": "Pariz",
          "name:ht": "Pari",
          "name:hu": "PÃ¡rizs",
          "name:hy": "Õ“Õ¡Ö€Õ«Õ¦",
          "name:is": "ParÃ\u00ads",
          "name:it": "Parigi",
          "name:ja": "ãƒ‘ãƒª",
          "name:jbo": "Paris",
          "name:ka": "áƒžáƒ\u0090áƒ áƒ˜áƒ–áƒ˜",
          "name:kk": "ÐŸÐ°Ñ€Ð¸Ð¶",
          "name:km": "áž”áŸ‰áž¶ážšáž¸ážŸ",
          "name:kn": "à²ªà³\u008dà²¯à²¾à²°à²¿à²¸à³\u008d",
          "name:ko": "íŒŒë¦¬",
          "name:koi": "ÐŸÐ°Ñ€Ð¸Ð¶",
          "name:krc": "ÐŸÐ°Ñ€Ð¸Ð¶",
          "name:ku": "ParÃ®s",
          "name:kv": "ÐŸÐ°Ñ€Ð¸Ð¶",
          "name:ky": "ÐŸÐ°Ñ€Ð¸Ð¶",
          "name:la": "Lutetia",
          "name:lb": "ParÃ¤is",
          "name:lez": "ÐŸÐ°Ñ€Ð¸Ð¶",
          "name:li": "Paries",
          "name:lij": "Pariggi",
          "name:ln": "Pari",
          "name:lt": "ParyÅ¾ius",
          "name:lv": "ParÄ«ze",
          "name:lzh": "å·´é»Ž",
          "name:mhr": "ÐŸÐ°Ñ€Ð¸Ð¶",
          "name:mi": "ParÄ«",
          "name:mk": "ÐŸÐ°Ñ€Ð¸Ð·",
          "name:ml": "à´ªà´¾à´°à´¿à´¸àµ\u008d",
          "name:mn": "ÐŸÐ°Ñ€Ð¸Ñ\u0081",
          "name:mr": "à¤ªà¥…à¤°à¤¿à¤¸",
          "name:mrj": "ÐŸÐ°Ñ€Ð¸Ð¶",
          "name:my": "á€•á€«á€›á€®á€™á€¼á€\u00adá€¯á€·",
          "name:myv": "ÐŸÐ°Ñ€Ð¸Ð¶ Ð¾Ñˆ",
          "name:mzn": "Ù¾Ø§Ø±ÛŒØ³",
          "name:nan": "Pa-lÃ\u00ad",
          "name:nap": "Parigge",
          "name:nds": "Paris",
          "name:nds-nl": "Paries",
          "name:ne": "à¤ªà¥‡à¤°à¤¿à¤¸",
          "name:nl": "Parijs",
          "name:no": "Paris",
          "name:oc": "ParÃ\u00ads",
          "name:or": "à¬ªà\u00ad\u008dà\u00adŸà¬¾à¬°à¬¿à¬¸",
          "name:os": "ÐŸÐ°Ñ€Ð¸Ð¶",
          "name:pa": "à¨ªà©ˆà¨°à¨¿à¨¸",
          "name:pl": "ParyÅ¼",
          "name:pnb": "Ù¾ÛŒØ±Ø³",
          "name:ps": "Ù¾Ø§Ø±ÙŠØ³",
          "name:roa-rup": "Parij",
          "name:roa-tara": "Parigge",
          "name:ru": "ÐŸÐ°Ñ€Ð¸Ð¶",
          "name:rue": "ÐŸÐ°Ñ€Ñ–Ð¶",
          "name:sah": "ÐŸÐ°Ñ€Ð¸Ð¶",
          "name:sc": "Parigi",
          "name:scn": "Pariggi",
          "name:sh": "Pariz",
          "name:sk": "ParÃ\u00adÅ¾",
          "name:sl": "Pariz",
          "name:so": "Baariis",
          "name:sq": "Parisi",
          "name:sr": "ÐŸÐ°Ñ€Ð¸Ð·",
          "name:sv": "Paris",
          "name:szl": "ParyÅ¼",
          "name:ta": "à®ªà®¾à®°à®¿à®¸à¯\u008d",
          "name:te": "à°ªà°¾à°°à°¿à°¸à±\u008d",
          "name:tet": "ParÃ\u00ads",
          "name:tg": "ÐŸÐ°Ñ€Ð¸Ð¶",
          "name:th": "à¸›à¸²à¸£à¸µà¸ª",
          "name:tk": "PariÅ¾",
          "name:tl": "Paris",
          "name:tt": "ÐŸÐ°Ñ€Ð¸Ð¶",
          "name:tzl": "Parighi",
          "name:udm": "ÐŸÐ°Ñ€Ð¸Ð¶",
          "name:ug": "Ù¾Ø§Ø±Ù‰Ú˜",
          "name:uk": "ÐŸÐ°Ñ€Ð¸Ð¶",
          "name:ur": "Ù¾ÛŒØ±Ø³",
          "name:uz": "Parij",
          "name:vec": "Parixe",
          "name:vep": "PariÅ¾",
          "name:vi": "Paris",
          "name:vls": "Parys",
          "name:wo": "Pari",
          "name:xmf": "áƒžáƒ\u0090áƒ áƒ˜áƒ–áƒ˜",
          "name:yi": "×¤×\u0090×¨×™×–",
          "name:yo": "Parisi",
          "name:yue": "å·´é»Ž",
          "name:za": "Bahliz",
          "name:zh": "å·´é»Ž",
          "name:zh_pinyin": "BÄ\u0081lÃ\u00ad",
          "name:zu": "IParisi",
          "old_name:vi": "Ba LÃª",
          "place": "city",
          "population": "2243833",
          "rank": "0",
          "ref:INSEE": "75056",
          "source:population": "INSEE 2013",
          "wikipedia": "fr:Paris",
          "osm:type": "node",
          "osm:id": 17807753,
          "osm:version": 98,
          "osm:changeset": 42249933,
          "osm:timestamp": 1474213321000,
          "osm:uid": 71980,
          "osm:user": "GaelADT"
        },
        "geometry": {
          "type": "Point",
          "coordinates": [
            2.3514992,
            48.8566101
          ]
        }
      }
    }
  ]
}
